
# Worst residual: 8.64 km
# MJD 60245.000000 (2023 Oct 28  0:00)
ZTF0EWD = C1A3AQ1 = 67040 obj
1 89972U 00000ABB 23301.49919926  .00000000  00000-0  00000-0 0 20772
2 89972 016.2590 242.2685 8158297 291.3487 254.7904 00.51036283    02

# Worst residual: 10.77 km
# MJD 60246.000000 (2023 Oct 29  0:00)
ZTF0EWD = C1A3AQ1 = 67040 obj
1 89972U 00000ABB 23302.49919926  .00000000  00000-0  00000-0 0 20773
2 89972 016.2639 242.1606 8155784 291.4887 078.4922 00.51046004    04

# Worst residual: 8.24 km
# MJD 60247.000000 (2023 Oct 30  0:00)
ZTF0EWD = C1A3AQ1 = 67040 obj
1 89972U 00000ABB 23303.49919926  .00000000  00000-0  00000-0 0 20774
2 89972 016.2618 242.1221 8153888 291.5414 262.3141 00.51055373    00

# Worst residual: 6.82 km
# MJD 60248.000000 (2023 Oct 31  0:00)
ZTF0EWD = C1A3AQ1 = 67040 obj
1 89972U 00000ABB 23304.49919926  .00000000  00000-0  00000-0 0 20775
2 89972 016.2616 242.0174 8151371 291.6637 086.0553 00.51046455    06

# Worst residual: 6.22 km
# MJD 60249.000000 (2023 Nov  1  0:00)
ZTF0EWD = C1A3AQ1 = 67040 obj
1 89972U 00000ABB 23305.49919926  .00000000  00000-0  00000-0 0 20776
2 89972 016.2652 241.9254 8152416 291.7693 269.8530 00.51061542    07

# Worst residual: 6.88 km
# MJD 60250.000000 (2023 Nov  2  0:00)
ZTF0EWD = C1A3AQ1 = 67040 obj
1 89972U 00000ABB 23306.49919926  .00000000  00000-0  00000-0 0 20777
2 89972 016.2698 241.8054 8150901 291.9088 093.6147 00.51049891    01

# Worst residual: 5.07 km
# MJD 60251.000000 (2023 Nov  3  0:00)
ZTF0EWD = C1A3AQ1 = 67040 obj
1 89972U 00000ABB 23307.49919926  .00000000  00000-0  00000-0 0 20778
2 89972 016.2722 241.7295 8151457 292.0057 277.3680 00.51056473    07

# Worst residual: 5.03 km
# MJD 60252.000000 (2023 Nov  4  0:00)
ZTF0EWD = C1A3AQ1 = 67040 obj
1 89972U 00000ABB 23308.49919926  .00000000  00000-0  00000-0 0 20779
2 89972 016.2801 241.6113 8150723 292.1497 101.1269 00.51051329    09

# Worst residual: 5.93 km
# MJD 60253.000000 (2023 Nov  5  0:00)
ZTF0EWD = C1A3AQ1 = 67040 obj
1 89972U 00000ABB 23309.49919926  .00000000  00000-0  00000-0 0 20770
2 89972 016.2761 241.5915 8149917 292.1922 284.8816 00.51049047    00

# Worst residual: 6.72 km
# MJD 60254.000000 (2023 Nov  6  0:00)
ZTF0EWD = C1A3AQ1 = 67040 obj
1 89972U 00000ABB 23310.49919926  .00000000  00000-0  00000-0 0 20772
2 89972 016.2851 241.4820 8149230 292.3317 108.6305 00.51048832    09

# Worst residual: 5.96 km
# MJD 60255.000000 (2023 Nov  7  0:00)
ZTF0EWD = C1A3AQ1 = 67040 obj
1 89972U 00000ABB 23311.49919926  .00000000  00000-0  00000-0 0 20773
2 89972 016.2775 241.4949 8148121 292.3364 292.4136 00.51044441    02

# Worst residual: 10.38 km
# MJD 60256.000000 (2023 Nov  8  0:00)
ZTF0EWD = C1A3AQ1 = 67040 obj
1 89972U 00000ABB 23312.49919926  .00000000  00000-0  00000-0 0 20774
2 89972 016.2853 241.3982 8147328 292.4644 116.1582 00.51045801    03

# Worst residual: 8.00 km
# MJD 60257.000000 (2023 Nov  9  0:00)
ZTF0EWD = C1A3AQ1 = 67040 obj
1 89972U 00000ABB 23313.49919926  .00000000  00000-0  00000-0 0 20775
2 89972 016.2800 241.3923 8146810 292.4826 299.9619 00.51043690    02

# Worst residual: 12.53 km
# MJD 60258.000000 (2023 Nov 10  0:00)
ZTF0EWD = C1A3AQ1 = 67040 obj
1 89972U 00000ABB 23314.49919926  .00000000  00000-0  00000-0 0 20776
2 89972 016.2864 241.3015 8145938 292.6041 123.7094 00.51044155    03

# Worst residual: 8.12 km
# MJD 60259.000000 (2023 Nov 11  0:00)
ZTF0EWD = C1A3AQ1 = 67040 obj
1 89972U 00000ABB 23315.49919926  .00000000  00000-0  00000-0 0 20777
2 89972 016.2867 241.2504 8145989 292.6691 307.5000 00.51048175    00

# Worst residual: 9.32 km
# MJD 60260.000000 (2023 Nov 12  0:00)
ZTF0EWD = C1A3AQ1 = 67040 obj
1 89972U 00000ABB 23316.49919926  .00000000  00000-0  00000-0 0 20778
2 89972 016.2922 241.1580 8145282 292.7911 131.2569 00.51046618    09

# Worst residual: 6.61 km
# MJD 60261.000000 (2023 Nov 13  0:00)
ZTF0EWD = C1A3AQ1 = 67040 obj
1 89972U 00000ABB 23317.49919926  .00000000  00000-0  00000-0 0 20779
2 89972 016.2979 241.0700 8144669 292.8982 315.0106 00.51054883    03

# Worst residual: 4.97 km
# MJD 60262.000000 (2023 Nov 14  0:00)
ZTF0EWD = C1A3AQ1 = 67040 obj
1 89972U 00000ABB 23318.49919926  .00000000  00000-0  00000-0 0 20770
2 89972 016.3022 240.9807 8144420 293.0152 138.7810 00.51053635    02

# Worst residual: 8.93 km
# MJD 60263.000000 (2023 Nov 15  0:00)
ZTF0EWD = C1A3AQ1 = 67040 obj
1 89972U 00000ABB 23319.49919926  .00000000  00000-0  00000-0 0 20771
2 89972 016.3058 240.9034 8142022 293.1170 322.5034 00.51060770    09

# Worst residual: 2.22 km
# MJD 60264.000000 (2023 Nov 16  0:00)
ZTF0EWD = C1A3AQ1 = 67040 obj
1 89972U 00000ABB 23320.49919926  .00000000  00000-0  00000-0 0 20773
2 89972 016.3092 240.8127 8142488 293.2304 146.2819 00.51061342    03

# Worst residual: 7.35 km
# MJD 60265.000000 (2023 Nov 17  0:00)
ZTF0EWD = C1A3AQ1 = 67040 obj
1 89972U 00000ABB 23321.49919926  .00000000  00000-0  00000-0 0 20774
2 89972 016.3067 240.7738 8138845 293.2934 330.0210 00.51063139    07

# Worst residual: 2.88 km
# MJD 60266.000000 (2023 Nov 18  0:00)
ZTF0EWD = C1A3AQ1 = 67040 obj
1 89972U 00000ABB 23322.49919926  .00000000  00000-0  00000-0 0 20775
2 89972 016.3091 240.6540 8140217 293.4286 153.7923 00.51062590    03

# Worst residual: 4.97 km
# MJD 60267.000000 (2023 Nov 19  0:00)
ZTF0EWD = C1A3AQ1 = 67040 obj
1 89972U 00000ABB 23323.49919926  .00000000  00000-0  00000-0 0 20776
2 89972 016.3112 240.5911 8138058 293.5115 337.5790 00.51059376    02

# Worst residual: 4.75 km
# MJD 60268.000000 (2023 Nov 20  0:00)
ZTF0EWD = C1A3AQ1 = 67040 obj
1 89972U 00000ABB 23324.49919926  .00000000  00000-0  00000-0 0 20777
2 89972 016.3154 240.4100 8139257 293.7129 161.3115 00.51050230    00

# Worst residual: 9.48 km
# MJD 60269.000000 (2023 Nov 21  0:00)
ZTF0EWD = C1A3AQ1 = 67040 obj
1 89972U 00000ABB 23325.49919926  .00000000  00000-0  00000-0 0 20778
2 89972 016.3406 240.2230 8139804 293.9276 345.0700 00.51056292    00

# Worst residual: 6.74 km
# MJD 60270.000000 (2023 Nov 22  0:00)
ZTF0EWD = C1A3AQ1 = 67040 obj
1 89972U 00000ABB 23326.49919926  .00000000  00000-0  00000-0 0 20779
2 89972 016.3467 240.0528 8138393 294.1377 168.7824 00.51036400    08

# Worst residual: 12.80 km
# MJD 60271.000000 (2023 Nov 23  0:00)
ZTF0EWD = C1A3AQ1 = 67040 obj
1 89972U 00000ABB 23327.49919926  .00000000  00000-0  00000-0 0 20770
2 89972 016.3777 239.8407 8137215 294.3881 352.4327 00.51053333    02

# Worst residual: 4.10 km
# MJD 60272.000000 (2023 Nov 24  0:00)
ZTF0EWD = C1A3AQ1 = 67040 obj
1 89972U 00000ABB 23328.49919926  .00000000  00000-0  00000-0 0 20771
2 89972 016.3813 239.7565 8134438 294.5125 176.2073 00.51046747    05

# Worst residual: 8.63 km
# MJD 60273.000000 (2023 Nov 25  0:00)
ZTF0EWD = C1A3AQ1 = 67040 obj
1 89972U 00000ABB 23329.49919926  .00000000  00000-0  00000-0 0 20772
2 89972 016.3862 239.6723 8129646 294.6239 359.8661 00.51055728    07

# Worst residual: 2.77 km
# MJD 60274.000000 (2023 Nov 26  0:00)
ZTF0EWD = C1A3AQ1 = 67040 obj
1 89972U 00000ABB 23330.49919926  .00000000  00000-0  00000-0 0 20774
2 89972 016.3898 239.5957 8129255 294.7207 183.6793 00.51061657    03
